GEOSCAN 3 (RS92S3)      
1 64893U 25155T   26195.16611900  .00010964  00000+0  31182-3 0  9992
2 64893  97.4546 165.3772 0008630  90.0031 270.2202 15.36285872 84990
INNOSAT 3 (RS92S0)      
1 64894U 25155U   26195.19421751  .00025661  00000+0  53048-3 0  9994
2 64894  97.4491 167.3776 0008296  93.2736 266.9462 15.45766831 85137
KNACKSAT-2              
1 67683U 98067XZ  26195.17133874  .00035210  00000+0  39407-3 0  9993
2 67683  51.6265 158.5001 0008030 324.3037  35.7419 15.62331997 24494
