OBJECT_NAME,OBJECT_ID,EPOCH,MEAN_MOTION,ECCENTRICITY,INCLINATION,RA_OF_ASC_NODE,ARG_OF_PERICENTER,MEAN_ANOMALY,EPHEMERIS_TYPE,CLASSIFICATION_TYPE,NORAD_CAT_ID,ELEMENT_SET_NO,REV_AT_EPOCH,BSTAR,MEAN_MOTION_DOT,MEAN_MOTION_DDOT
GEOSCAN 3 (RS92S3),2025-155T,2026-07-14T03:59:12.681600,15.36285872,.000863,97.4546,165.3772,90.0031,270.2202,0,U,64893,999,8499,.31182E-3,.10964E-3,0
INNOSAT 3 (RS92S0),2025-155U,2026-07-14T04:39:40.392864,15.45766831,.0008296,97.4491,167.3776,93.2736,266.9462,0,U,64894,999,8513,.53048E-3,.25661E-3,0
KNACKSAT-2,1998-067XZ,2026-07-14T04:06:43.667136,15.62331997,.000803,51.6265,158.5001,324.3037,35.7419,0,U,67683,999,2449,.39407E-3,.3521E-3,0
